start=new Date('2022-02-18T00:00:00.000Z').valueOf();
sats=[{"TIME_SYSTEM":"UTC","FILE":"3305402","ELEMENT_SET_NO":"999","CENTER_NAME":"EARTH","COUNTRY_CODE":"US","REF_FRAME":"TEME","ECCENTRICITY":"0.00010650","TLE_LINE2":"2 47738  53.0555  10.5159 0001065 231.3302 128.7592 15.06404507 54680","DECAY_DATE":null,"REV_AT_EPOCH":"5468","OBJECT_TYPE":"PAYLOAD","MEAN_MOTION_DDOT":"0.0000000000000","RA_OF_ASC_NODE":"10.5159","LAUNCH_DATE":"2021-03-04","MEAN_MOTION":"15.06404507","TLE_LINE1":"1 47738U 21017S   22048.59547358  .00001595  00000-0  12591-3 0  9993","INCLINATION":"53.0555","APOAPSIS":"547.937","GP_ID":"196244387","MEAN_MOTION_DOT":"0.00001595","ARG_OF_PERICENTER":"231.3302","OBJECT_ID":"2021-017S","BSTAR":"0.00012591000000","MEAN_ELEMENT_THEORY":"SGP4","SEMIMAJOR_AXIS":"6925.335","SITE":"AFETR","PERIOD":"95.592","RCS_SIZE":"LARGE","EPHEMERIS_TYPE":"0","CLASSIFICATION_TYPE":"U","MEAN_ANOMALY":"128.7592","NORAD_CAT_ID":"47738","PERIAPSIS":"546.462","EPOCH":"2022-02-17T14:17:28.917312","OBJECT_NAME":"STARLINK-2149"},{"CLASSIFICATION_TYPE":"U","MEAN_ANOMALY":"300.0081","NORAD_CAT_ID":"47739","EPOCH":"2022-02-17T10:39:12.194496","PERIAPSIS":"546.106","OBJECT_NAME":"STARLINK-2150","SEMIMAJOR_AXIS":"6925.305","MEAN_ELEMENT_THEORY":"SGP4","SITE":"AFETR","PERIOD":"95.591","EPHEMERIS_TYPE":"0","RCS_SIZE":"LARGE","MEAN_MOTION_DOT":"0.00002263","BSTAR":"0.00017072000000","ARG_OF_PERICENTER":"60.1061","OBJECT_ID":"2021-017T","LAUNCH_DATE":"2021-03-04","TLE_LINE1":"1 47739U 21017T   22048.44389114  .00002263  00000-0  17072-3 0  9994","MEAN_MOTION":"15.06414150","APOAPSIS":"548.234","INCLINATION":"53.0559","GP_ID":"196207028","MEAN_MOTION_DDOT":"0.0000000000000","RA_OF_ASC_NODE":"36.1929","TLE_LINE2":"2 47739  53.0559  36.1929 0001536  60.1061 300.0081 15.06414150 54310","DECAY_DATE":null,"REV_AT_EPOCH":"5431","OBJECT_TYPE":"PAYLOAD","CENTER_NAME":"EARTH","COUNTRY_CODE":"US","REF_FRAME":"TEME","ECCENTRICITY":"0.00015360","TIME_SYSTEM":"UTC","FILE":"3304735","ELEMENT_SET_NO":"999"},{"RCS_SIZE":"LARGE","EPHEMERIS_TYPE":"0","PERIOD":"95.592","SITE":"AFETR","SEMIMAJOR_AXIS":"6925.343","MEAN_ELEMENT_THEORY":"SGP4","OBJECT_NAME":"STARLINK-2152","PERIAPSIS":"545.974","EPOCH":"2022-02-17T14:58:37.881120","NORAD_CAT_ID":"47740","MEAN_ANOMALY":"302.9295","CLASSIFICATION_TYPE":"U","GP_ID":"196242885","APOAPSIS":"548.442","INCLINATION":"53.0547","MEAN_MOTION":"15.06401685","TLE_LINE1":"1 47740U 21017U   22048.62404955  .00002347  00000-0  17640-3 0  9991","LAUNCH_DATE":"2021-03-04","OBJECT_ID":"2021-017U","ARG_OF_PERICENTER":"57.1865","BSTAR":"0.00017640000000","MEAN_MOTION_DOT":"0.00002347","OBJECT_TYPE":"PAYLOAD","TLE_LINE2":"2 47740  53.0547  20.3865 0001782  57.1865 302.9295 15.06401685 54546","DECAY_DATE":null,"REV_AT_EPOCH":"5454","RA_OF_ASC_NODE":"20.3865","MEAN_MOTION_DDOT":"0.0000000000000","ELEMENT_SET_NO":"999","FILE":"3305402","TIME_SYSTEM":"UTC","ECCENTRICITY":"0.00017820","REF_FRAME":"TEME","COUNTRY_CODE":"US","CENTER_NAME":"EARTH"},{"OBJECT_ID":"2021-017V","BSTAR":"-0.00003013400000","ARG_OF_PERICENTER":"63.2476","MEAN_MOTION_DOT":"-0.00000730","GP_ID":"196243636","APOAPSIS":"548.344","INCLINATION":"53.0557","LAUNCH_DATE":"2021-03-04","MEAN_MOTION":"15.06393779","TLE_LINE1":"1 47741U 21017V   22048.63878652 -.00000730  00000-0 -30134-4 0  9992","OBJECT_NAME":"STARLINK-2154","PERIAPSIS":"546.121","EPOCH":"2022-02-17T15:19:51.155328","NORAD_CAT_ID":"47741","CLASSIFICATION_TYPE":"U","MEAN_ANOMALY":"296.8677","PERIOD":"95.593","EPHEMERIS_TYPE":"0","RCS_SIZE":"LARGE","SITE":"AFETR","SEMIMAJOR_AXIS":"6925.368","MEAN_ELEMENT_THEORY":"SGP4","REF_FRAME":"TEME","ECCENTRICITY":"0.00016050","CENTER_NAME":"EARTH","COUNTRY_CODE":"US","ELEMENT_SET_NO":"999","FILE":"3305402","TIME_SYSTEM":"UTC","RA_OF_ASC_NODE":"20.3197","MEAN_MOTION_DDOT":"0.0000000000000","OBJECT_TYPE":"PAYLOAD","DECAY_DATE":null,"TLE_LINE2":"2 47741  53.0557  20.3197 0001605  63.2476 296.8677 15.06393779 54501","REV_AT_EPOCH":"5450"},{"MEAN_ELEMENT_THEORY":"SGP4","SEMIMAJOR_AXIS":"6925.345","SITE":"AFETR","EPHEMERIS_TYPE":"0","RCS_SIZE":"LARGE","PERIOD":"95.592","MEAN_ANOMALY":"294.1719","CLASSIFICATION_TYPE":"U","NORAD_CAT_ID":"47742","PERIAPSIS":"546.082","EPOCH":"2022-02-17T20:23:43.039680","OBJECT_NAME":"STARLINK-2156","MEAN_MOTION":"15.06401253","TLE_LINE1":"1 47742U 21017W   22048.84980370  .00001064  00000-0  90313-4 0  9991","LAUNCH_DATE":"2021-03-04","INCLINATION":"53.0549","APOAPSIS":"548.337","GP_ID":"196243887","MEAN_MOTION_DOT":"0.00001064","BSTAR":"0.00009031300000","ARG_OF_PERICENTER":"65.9440","OBJECT_ID":"2021-017W","TLE_LINE2":"2 47742  53.0549   9.3822 0001628  65.9440 294.1719 15.06401253 54729","DECAY_DATE":null,"REV_AT_EPOCH":"5472","OBJECT_TYPE":"PAYLOAD","MEAN_MOTION_DDOT":"0.0000000000000","RA_OF_ASC_NODE":"9.3822","TIME_SYSTEM":"UTC","ELEMENT_SET_NO":"999","FILE":"3305402","COUNTRY_CODE":"US","CENTER_NAME":"EARTH","ECCENTRICITY":"0.00016280","REF_FRAME":"TEME"},{"TIME_SYSTEM":"UTC","ELEMENT_SET_NO":"999","FILE":"3305402","CENTER_NAME":"EARTH","COUNTRY_CODE":"US","REF_FRAME":"TEME","ECCENTRICITY":"0.00015420","REV_AT_EPOCH":"5466","TLE_LINE2":"2 47743  53.0565  10.4411 0001542  57.9481 302.1657 15.06406749 54665","DECAY_DATE":null,"OBJECT_TYPE":"PAYLOAD","RA_OF_ASC_NODE":"10.4411","MEAN_MOTION_DDOT":"0.0000000000000","LAUNCH_DATE":"2021-03-04","MEAN_MOTION":"15.06406749","TLE_LINE1":"1 47743U 21017X   22048.61022450  .00004116  00000-0  29499-3 0  9990","GP_ID":"196244137","APOAPSIS":"548.261","INCLINATION":"53.0565","MEAN_MOTION_DOT":"0.00004116","BSTAR":"0.00029499000000","ARG_OF_PERICENTER":"57.9481","OBJECT_ID":"2021-017X","MEAN_ELEMENT_THEORY":"SGP4","SEMIMAJOR_AXIS":"6925.328","PERIOD":"95.592","EPHEMERIS_TYPE":"0","RCS_SIZE":"LARGE","SITE":"AFETR","NORAD_CAT_ID":"47743","CLASSIFICATION_TYPE":"U","MEAN_ANOMALY":"302.1657","OBJECT_NAME":"STARLINK-2157","PERIAPSIS":"546.125","EPOCH":"2022-02-17T14:38:43.396800"},{"GP_ID":"196243386","APOAPSIS":"548.343","INCLINATION":"53.0559","TLE_LINE1":"1 47744U 21017Y   22048.58810317  .00003840  00000-0  27647-3 0  9990","MEAN_MOTION":"15.06410284","LAUNCH_DATE":"2021-03-04","BSTAR":"0.00027647000000","ARG_OF_PERICENTER":"62.9039","OBJECT_ID":"2021-017Y","MEAN_MOTION_DOT":"0.00003840","EPHEMERIS_TYPE":"0","RCS_SIZE":"LARGE","PERIOD":"95.591","SITE":"AFETR","SEMIMAJOR_AXIS":"6925.317","MEAN_ELEMENT_THEORY":"SGP4","OBJECT_NAME":"STARLINK-2158","EPOCH":"2022-02-17T14:06:52.113888","PERIAPSIS":"546.021","NORAD_CAT_ID":"47744","MEAN_ANOMALY":"297.2121","CLASSIFICATION_TYPE":"U","FILE":"3305402","ELEMENT_SET_NO":"999","TIME_SYSTEM":"UTC","ECCENTRICITY":"0.00016760","REF_FRAME":"TEME","COUNTRY_CODE":"US","CENTER_NAME":"EARTH","OBJECT_TYPE":"PAYLOAD","DECAY_DATE":null,"TLE_LINE2":"2 47744  53.0559  10.5525 0001676  62.9039 297.2121 15.06410284 54680","REV_AT_EPOCH":"5468","RA_OF_ASC_NODE":"10.5525","MEAN_MOTION_DDOT":"0.0000000000000"},{"MEAN_MOTION_DDOT":"0.0000000000000","RA_OF_ASC_NODE":"20.4272","OBJECT_TYPE":"PAYLOAD","TLE_LINE2":"2 47745  53.0551  20.4272 0001675  62.8031 297.3129 15.06408840 54495","DECAY_DATE":null,"REV_AT_EPOCH":"5449","REF_FRAME":"TEME","ECCENTRICITY":"0.00016750","CENTER_NAME":"EARTH","COUNTRY_CODE":"US","ELEMENT_SET_NO":"999","FILE":"3305402","TIME_SYSTEM":"UTC","PERIAPSIS":"546.026","EPOCH":"2022-02-17T14:48:00.465984","OBJECT_NAME":"STARLINK-2159","CLASSIFICATION_TYPE":"U","MEAN_ANOMALY":"297.3129","NORAD_CAT_ID":"47745","SITE":"AFETR","PERIOD":"95.592","EPHEMERIS_TYPE":"0","RCS_SIZE":"LARGE","SEMIMAJOR_AXIS":"6925.321","MEAN_ELEMENT_THEORY":"SGP4","OBJECT_ID":"2021-017Z","ARG_OF_PERICENTER":"62.8031","BSTAR":"0.00028305000000","MEAN_MOTION_DOT":"0.00003938","INCLINATION":"53.0551","APOAPSIS":"548.346","GP_ID":"196243136","LAUNCH_DATE":"2021-03-04","MEAN_MOTION":"15.06408840","TLE_LINE1":"1 47745U 21017Z   22048.61667206  .00003938  00000-0  28305-3 0  9992"},{"TIME_SYSTEM":"UTC","FILE":"3304735","ELEMENT_SET_NO":"999","CENTER_NAME":"EARTH","COUNTRY_CODE":"US","REF_FRAME":"TEME","ECCENTRICITY":"0.00017800","REV_AT_EPOCH":"5448","TLE_LINE2":"2 47746  53.0559  20.4391 0001780  59.6047 300.5118 15.06403764 54488","DECAY_DATE":null,"OBJECT_TYPE":"PAYLOAD","MEAN_MOTION_DDOT":"0.0000000000000","RA_OF_ASC_NODE":"20.4391","LAUNCH_DATE":"2021-03-04","MEAN_MOTION":"15.06403764","TLE_LINE1":"1 47746U 21017AA  22048.60929827  .00001419  00000-0  11416-3 0  9999","APOAPSIS":"548.435","INCLINATION":"53.0559","GP_ID":"196206278","MEAN_MOTION_DOT":"0.00001419","BSTAR":"0.00011416000000","OBJECT_ID":"2021-017AA","ARG_OF_PERICENTER":"59.6047","MEAN_ELEMENT_THEORY":"SGP4","SEMIMAJOR_AXIS":"6925.337","SITE":"AFETR","PERIOD":"95.592","EPHEMERIS_TYPE":"0","RCS_SIZE":"LARGE","CLASSIFICATION_TYPE":"U","MEAN_ANOMALY":"300.5118","NORAD_CAT_ID":"47746","PERIAPSIS":"545.969","EPOCH":"2022-02-17T14:37:23.370528","OBJECT_NAME":"STARLINK-2160"},{"TIME_SYSTEM":"UTC","ELEMENT_SET_NO":"999","FILE":"3305402","CENTER_NAME":"EARTH","COUNTRY_CODE":"US","REF_FRAME":"TEME","ECCENTRICITY":"0.00015720","DECAY_DATE":null,"TLE_LINE2":"2 47747  53.0568  10.4705 0001572  61.8446 298.2702 15.06411096 54663","REV_AT_EPOCH":"5466","OBJECT_TYPE":"PAYLOAD","RA_OF_ASC_NODE":"10.4705","MEAN_MOTION_DDOT":"0.0000000000000","LAUNCH_DATE":"2021-03-04","TLE_LINE1":"1 47747U 21017AB  22048.60651874  .00003101  00000-0  22691-3 0  9991","MEAN_MOTION":"15.06411096","GP_ID":"196244638","APOAPSIS":"548.268","INCLINATION":"53.0568","MEAN_MOTION_DOT":"0.00003101","OBJECT_ID":"2021-017AB","BSTAR":"0.00022691000000","ARG_OF_PERICENTER":"61.8446","MEAN_ELEMENT_THEORY":"SGP4","SEMIMAJOR_AXIS":"6925.315","PERIOD":"95.591","RCS_SIZE":"LARGE","EPHEMERIS_TYPE":"0","SITE":"AFETR","NORAD_CAT_ID":"47747","CLASSIFICATION_TYPE":"U","MEAN_ANOMALY":"298.2702","OBJECT_NAME":"STARLINK-2161","PERIAPSIS":"546.091","EPOCH":"2022-02-17T14:33:23.219136"}];
